LANDSAT 9               
1 49260U 21088A   23327.13278475  .00000764  00000+0  17959-3 0  9994
2 49260  98.2140  34.9877 0001239  90.3875 269.7466 14.57100969114538
